{"type": "FeatureCollection", "features": [ {"type": "Feature", "properties": {"norad_id": 34058, "name": "COSMOS 2251 DEB", "group": "cosmos-2251-debris", "lat": -55.093291112064755, "lon": 139.93913093200672, "alt_km": 1278.282945000563, "timestamp": "2025-12-21T05:44:51.981011+00:00", "meta": {"OBJECT_NAME": "COSMOS 2251 DEB", "OBJECT_ID": "1993-036JV", "EPOCH": "2025-12-20T20:00:29.932992", "MEAN_MOTION": 13.56087752, "ECCENTRICITY": 0.03776056, "INCLINATION": 73.9314, "RA_OF_ASC_NODE": 164.9929, "ARG_OF_PERICENTER": 158.692, "MEAN_ANOMALY": 319.747, "EPHEMERIS_TYPE": 0, "CLASSIFICATION_TYPE": "U", "NORAD_CAT_ID": 34058, "ELEMENT_SET_NO": 999, "REV_AT_EPOCH": 83252, "BSTAR": 0.00052841817, "MEAN_MOTION_DOT": 5.66e-06, "MEAN_MOTION_DDOT": 0}, "tle": {"line1": "1 34058U 93036JV  25354.83367978  .00000566  00000+0  52842-3 0  9991", "line2": "2 34058  73.9314 164.9929 0377605 158.6920 319.7470 13.56087752832523"}}, "geometry": {"type": "Point", "coordinates": [139.93913093200672, -55.093291112064755]}}, {"type": "Feature", "properties": {"norad_id": 34059, "name": "COSMOS 2251 DEB", "group": "cosmos-2251-debris", "lat": -57.64242508533073, "lon": 17.099723952745002, "alt_km": 709.5881150269697, "timestamp": "2025-12-21T05:44:51.981021+00:00", "meta": {"OBJECT_NAME": "COSMOS 2251 DEB", "OBJECT_ID": "1993-036JW", "EPOCH": "2025-12-20T22:35:04.793280", "MEAN_MOTION": 14.52990757, "ECCENTRICITY": 0.00184666, "INCLINATION": 74.0366, "RA_OF_ASC_NODE": 170.8044, "ARG_OF_PERICENTER": 247.311, "MEAN_ANOMALY": 233.5755, "EPHEMERIS_TYPE": 0, "CLASSIFICATION_TYPE": "U", "NORAD_CAT_ID": 34059, "ELEMENT_SET_NO": 999, "REV_AT_EPOCH": 88578, "BSTAR": 0.00052092676, "MEAN_MOTION_DOT": 2.126e-05, "MEAN_MOTION_DDOT": 0}, "tle": {"line1": "1 34059U 93036JW  25354.94102770  .00002126  00000+0  52093-3 0  9993", "line2": "2 34059  74.0366 170.8044 0018466 247.3110 233.5755 14.52990757885781"}}, "geometry": {"type": "Point", "coordinates": [17.099723952745002, -57.64242508533073]}}, {"type": "Feature", "properties": {"norad_id": 34061, "name": "COSMOS 2251 DEB", "group": "cosmos-2251-debris", "lat": -22.052576461126247, "lon": 74.33620663721226, "alt_km": 769.750952792232, "timestamp": "2025-12-21T05:44:51.981031+00:00", "meta": {"OBJECT_NAME": "COSMOS 2251 DEB", "OBJECT_ID": "1993-036JY", "EPOCH": "2025-12-20T19:07:35.755968", "MEAN_MOTION": 14.40372637, "ECCENTRICITY": 0.0020788, "INCLINATION": 74.0389, "RA_OF_ASC_NODE": 248.4963, "ARG_OF_PERICENTER": 324.2458, "MEAN_ANOMALY": 104.996, "EPHEMERIS_TYPE": 0, "CLASSIFICATION_TYPE": "U", "NORAD_CAT_ID": 34061, "ELEMENT_SET_NO": 999, "REV_AT_EPOCH": 88296, "BSTAR": 0.00020574088, "MEAN_MOTION_DOT": 6.28e-06, "MEAN_MOTION_DDOT": 0}, "tle": {"line1": "1 34061U 93036JY  25354.79694162  .00000628  00000+0  20574-3 0  9994", "line2": "2 34061  74.0389 248.4963 0020788 324.2458 104.9960 14.40372637882965"}}, "geometry": {"type": "Point", "coordinates": [74.33620663721226, -22.052576461126247]}}, {"type": "Feature", "properties": {"norad_id": 34062, "name": "COSMOS 2251 DEB", "group": "cosmos-2251-debris", "lat": 55.27362903027884, "lon": 145.72263629746308, "alt_km": 666.2814990278221, "timestamp": "2025-12-21T05:44:51.981041+00:00", "meta": {"OBJECT_NAME": "COSMOS 2251 DEB", "OBJECT_ID": "1993-036JZ", "EPOCH": "2025-12-20T10:15:22.938048", "MEAN_MOTION": 14.78948215, "ECCENTRICITY": 0.00736685, "INCLINATION": 74.0283, "RA_OF_ASC_NODE": 122.9131, "ARG_OF_PERICENTER": 200.4606, "MEAN_ANOMALY": 216.6506, "EPHEMERIS_TYPE": 0, "CLASSIFICATION_TYPE": "U", "NORAD_CAT_ID": 34062, "ELEMENT_SET_NO": 999, "REV_AT_EPOCH": 88709, "BSTAR": 0.0018745638, "MEAN_MOTION_DOT": 0.00014476, "MEAN_MOTION_DDOT": 0}, "tle": {"line1": "1 34062U 93036JZ  25354.42734882  .00014476  00000+0  18746-2 0  9992", "line2": "2 34062  74.0283 122.9131 0073668 200.4606 216.6506 14.78948215887095"}}, "geometry": {"type": "Point", "coordinates": [145.72263629746308, 55.27362903027884]}}, {"type": "Feature", "properties": {"norad_id": 34064, "name": "COSMOS 2251 DEB", "group": "cosmos-2251-debris", "lat": -53.93082279280273, "lon": 98.24712390451526, "alt_km": 755.4498648139843, "timestamp": "2025-12-21T05:44:51.981051+00:00", "meta": {"OBJECT_NAME": "COSMOS 2251 DEB", "OBJECT_ID": "1993-036KB", "EPOCH": "2025-12-20T18:55:30.288000", "MEAN_MOTION": 14.42362501, "ECCENTRICITY": 0.00223326, "INCLINATION": 74.032, "RA_OF_ASC_NODE": 255.9361, "ARG_OF_PERICENTER": 321.3645, "MEAN_ANOMALY": 95.4544, "EPHEMERIS_TYPE": 0, "CLASSIFICATION_TYPE": "U", "NORAD_CAT_ID": 34064, "ELEMENT_SET_NO": 999, "REV_AT_EPOCH": 88258, "BSTAR": 0.00032633223, "MEAN_MOTION_DOT": 1.055e-05, "MEAN_MOTION_DDOT": 0}, "tle": {"line1": "1 34064U 93036KB  25354.78854500  .00001055  00000+0  32633-3 0  9994", "line2": "2 34064  74.0320 255.9361 0022332 321.3645  95.4544 14.42362501882582"}}, "geometry": {"type": "Point", "coordinates": [98.24712390451526, -53.93082279280273]}}, {"type": "Feature", "properties": {"norad_id": 34065, "name": "COSMOS 2251 DEB", "group": "cosmos-2251-debris", "lat": 56.53212789586054, "lon": 36.80608518445771, "alt_km": 768.4086926619993, "timestamp": "2025-12-21T05:44:51.981060+00:00", "meta": {"OBJECT_NAME": "COSMOS 2251 DEB", "OBJECT_ID": "1993-036KC", "EPOCH": "2025-12-20T03:14:04.680960", "MEAN_MOTION": 14.38070126, "ECCENTRICITY": 0.00166771, "INCLINATION": 74.0353, "RA_OF_ASC_NODE": 244.4999, "ARG_OF_PERICENTER": 340.6993, "MEAN_ANOMALY": 182.0759, "EPHEMERIS_TYPE": 0, "CLASSIFICATION_TYPE": "U", "NORAD_CAT_ID": 34065, "ELEMENT_SET_NO": 999, "REV_AT_EPOCH": 88311, "BSTAR": 0.00012127045, "MEAN_MOTION_DOT": 3.41e-06, "MEAN_MOTION_DDOT": 0}, "tle": {"line1": "1 34065U 93036KC  25354.13477640  .00000341  00000+0  12127-3 0  9993", "line2": "2 34065  74.0353 244.4999 0016677 340.6993 182.0759 14.38070126883119"}}, "geometry": {"type": "Point", "coordinates": [36.80608518445771, 56.53212789586054]}}, {"type": "Feature", "properties": {"norad_id": 34070, "name": "COSMOS 2251 DEB", "group": "cosmos-2251-debris", "lat": 57.34339171760039, "lon": -107.03234532690897, "alt_km": 633.6223494440674, "timestamp": "2025-12-21T05:44:51.981070+00:00", "meta": {"OBJECT_NAME": "COSMOS 2251 DEB", "OBJECT_ID": "1993-036KH", "EPOCH": "2025-12-20T18:23:42.272736", "MEAN_MOTION": 14.77271735, "ECCENTRICITY": 0.00181745, "INCLINATION": 74.0009, "RA_OF_ASC_NODE": 100.4913, "ARG_OF_PERICENTER": 216.9904, "MEAN_ANOMALY": 267.4014, "EPHEMERIS_TYPE": 0, "CLASSIFICATION_TYPE": "U", "NORAD_CAT_ID": 34070, "ELEMENT_SET_NO": 999, "REV_AT_EPOCH": 88729, "BSTAR": 0.0014117222, "MEAN_MOTION_DOT": 0.00010023, "MEAN_MOTION_DDOT": 0}, "tle": {"line1": "1 34070U 93036KH  25354.76646149  .00010023  00000+0  14117-2 0  9998", "line2": "2 34070  74.0009 100.4913 0018174 216.9904 267.4014 14.77271735887298"}}, "geometry": {"type": "Point", "coordinates": [-107.03234532690897, 57.34339171760039]}}, {"type": "Feature", "properties": {"norad_id": 34114, "name": "COSMOS 2251 DEB", "group": "cosmos-2251-debris", "lat": 50.58869170220096, "lon": 48.08109973294118, "alt_km": 671.4479876144796, "timestamp": "2025-12-21T05:44:51.981080+00:00", "meta": {"OBJECT_NAME": "COSMOS 2251 DEB", "OBJECT_ID": "1993-036KK", "EPOCH": "2025-12-20T20:24:52.373088", "MEAN_MOTION": 14.56474222, "ECCENTRICITY": 0.00478756, "INCLINATION": 74.0582, "RA_OF_ASC_NODE": 28.4624, "ARG_OF_PERICENTER": 20.252, "MEAN_ANOMALY": 154.77, "EPHEMERIS_TYPE": 0, "CLASSIFICATION_TYPE": "U", "NORAD_CAT_ID": 34114, "ELEMENT_SET_NO": 999, "REV_AT_EPOCH": 87919, "BSTAR": 0.00096703616, "MEAN_MOTION_DOT": 4.339e-05, "MEAN_MOTION_DDOT": 0}, "tle": {"line1": "1 34114U 93036KK  25354.85060617  .00004339  00000+0  96704-3 0  9993", "line2": "2 34114  74.0582  28.4624 0047875  20.2520 154.7700 14.56474222879194"}}, "geometry": {"type": "Point", "coordinates": [48.08109973294118, 50.58869170220096]}}, {"type": "Feature", "properties": {"norad_id": 34115, "name": "COSMOS 2251 DEB", "group": "cosmos-2251-debris", "lat": 25.76722795138544, "lon": 37.223911537490324, "alt_km": 635.2509074670634, "timestamp": "2025-12-21T05:44:51.981090+00:00", "meta": {"OBJECT_NAME": "COSMOS 2251 DEB", "OBJECT_ID": "1993-036KL", "EPOCH": "2025-12-20T17:42:06.598368", "MEAN_MOTION": 14.79584884, "ECCENTRICITY": 0.00288623, "INCLINATION": 74.0058, "RA_OF_ASC_NODE": 226.1718, "ARG_OF_PERICENTER": 47.278, "MEAN_ANOMALY": 313.0818, "EPHEMERIS_TYPE": 0, "CLASSIFICATION_TYPE": "U", "NORAD_CAT_ID": 34115, "ELEMENT_SET_NO": 999, "REV_AT_EPOCH": 89530, "BSTAR": 0.00051805015, "MEAN_MOTION_DOT": 3.875e-05, "MEAN_MOTION_DDOT": 0}, "tle": {"line1": "1 34115U 93036KL  25354.73757637  .00003875  00000+0  51805-3 0  9993", "line2": "2 34115  74.0058 226.1718 0028862  47.2780 313.0818 14.79584884895308"}}, "geometry": {"type": "Point", "coordinates": [37.223911537490324, 25.76722795138544]}}, {"type": "Feature", "properties": {"norad_id": 34116, "name": "COSMOS 2251 DEB", "group": "cosmos-2251-debris", "lat": 23.454752454925835, "lon": 173.87619627091232, "alt_km": 721.5625571755654, "timestamp": "2025-12-21T05:44:51.981100+00:00", "meta": {"OBJECT_NAME": "COSMOS 2251 DEB", "OBJECT_ID": "1993-036KM", "EPOCH": "2025-12-20T21:56:14.931744", "MEAN_MOTION": 14.53019784, "ECCENTRICITY": 0.00118493, "INCLINATION": 74.0395, "RA_OF_ASC_NODE": 167.3571, "ARG_OF_PERICENTER": 243.4697, "MEAN_ANOMALY": 239.4227, "EPHEMERIS_TYPE": 0, "CLASSIFICATION_TYPE": "U", "NORAD_CAT_ID": 34116, "ELEMENT_SET_NO": 999, "REV_AT_EPOCH": 88605, "BSTAR": 0.00054560329, "MEAN_MOTION_DOT": 2.227e-05, "MEAN_MOTION_DDOT": 0}, "tle": {"line1": "1 34116U 93036KM  25354.91406171  .00002227  00000+0  54560-3 0  9999", "line2": "2 34116  74.0395 167.3571 0011849 243.4697 239.4227 14.53019784886051"}}, "geometry": {"type": "Point", "coordinates": [173.87619627091232, 23.454752454925835]}}]}